GLOBALSTAR M045 [-]     
1 25676U 99019A   24020.28273170 -.00000035  00000+0  51618-3 0  9994
2 25676  51.9998 329.9646 0000669 332.7268 175.0627 12.27027270130305
GLOBALSTAR M019 [-]     
1 25677U 99019B   24020.54449713  .00000002  00000+0  96296-3 0  9996
2 25677  51.9880  63.4482 0000562  27.7574 119.6024 12.13848792122768
GLOBALSTAR M044 [-]     
1 25678U 99019C   24020.72057132 -.00000065  00000+0  26231-3 0  9999
2 25678  51.9992 310.0862 0006536 124.9635 238.9991 11.90227336110169
GLOBALSTAR M042 [-]     
1 25679U 99019D   24020.42987834 -.00000052  00000+0  38154-3 0  9991
2 25679  52.0024  61.2673 0002619 320.3487 143.7061 12.22054536122449
GLOBALSTAR M025 [-]     
1 25770U 99031A   24020.08986900 -.00000060  00000+0  23854-3 0  9992
2 25770  51.9808 270.2102 0001983  31.7206 117.7714 11.22548717423979
GLOBALSTAR M049 [-]     
1 25771U 99031B   24020.13283945 -.00000032  00000+0  11589-2 0  9998
2 25771  51.9871 279.0399 0002292 227.7215 132.3387 11.12102493 60237
GLOBALSTAR M047 [-]     
1 25772U 99031C   24020.28514937 -.00000057  00000+0  36168-3 0  9991
2 25772  51.9866 324.7587 0016613  98.7789 261.4899 11.31917791412917
GLOBALSTAR M052 [-]     
1 25773U 99031D   24020.20961972 -.00000024  00000+0  13900-2 0  9991
2 25773  51.9889  34.7620 0002445  44.2971  35.7654 11.15047618421179
